NORAD_CAT_ID,OBJECT_NAME,OBJECT_TYPE,EPOCH,MEAN_MOTION,ECCENTRICITY,INCLINATION,RA_OF_ASC_NODE,ARG_OF_PERICENTER,MEAN_ANOMALY,BSTAR,MEAN_MOTION_DOT,MEAN_MOTION_DDOT,TLE_LINE0,TLE_LINE1,TLE_LINE2,SEMIMAJOR_AXIS,PERIOD,APOGEE,PERIGEE,DECAYED
53013.0,STARLINK-4177,PAYLOAD,2023-03-05 01:10:29,15.08836599,8.59e-05,53.216,345.0957,96.5783,263.5307,0.0015142,0.0002389,0.0,0 STARLINK-4177,1 53013U 22076AD  23064.04895176  .00023890  00000-0  15142-2 0  9991,2 53013  53.2160 345.0957 0000859  96.5783 263.5307 15.08836599 37295,6917.891,95.438,540.35,539.162,0.0
53013.0,STARLINK-4177,PAYLOAD,2023-03-05 21:50:30,15.08845351,0.0001067,53.2154,341.2284,109.4304,250.6803,0.0011401,0.00017906,0.0,0 STARLINK-4177,1 53013U 22076AD  23064.91007669  .00017906  00000-0  11401-2 0  9994,2 53013  53.2154 341.2284 0001067 109.4304 250.6803 15.08845351 37423,6917.864,95.437,540.467,538.991,0.0
53013.0,STARLINK-4177,PAYLOAD,2023-03-06 01:01:16,15.08857078,0.0001256,53.217,340.6354,77.3508,282.7624,0.0018633,0.00029505,0.0,0 STARLINK-4177,1 53013U 22076AD  23065.04255742  .00029505  00000-0  18633-2 0  9998,2 53013  53.2170 340.6354 0001256  77.3508 282.7624 15.08857078 37449,6917.828,95.436,540.562,538.824,0.0
53013.0,STARLINK-4177,PAYLOAD,2023-03-06 18:30:31,15.0883433,8.23e-05,53.2165,337.3639,106.9013,253.207,0.0012374,0.00019457,0.0,0 STARLINK-4177,1 53013U 22076AD  23065.77120221  .00019457  00000-0  12374-2 0  9992,2 53013  53.2165 337.3639 0000823 106.9013 253.2070 15.08834330 37557,6917.898,95.438,540.332,539.193,0.0
53013.0,STARLINK-4177,PAYLOAD,2023-03-07 18:21:18,15.08847317,5.83e-05,53.2172,332.9047,72.8863,287.2193,0.0012644,0.00019896,0.0,0 STARLINK-4177,1 53013U 22076AD  23066.76480214  .00019896  00000-0  12644-2 0  9990,2 53013  53.2172 332.9047 0000583  72.8863 287.2193 15.08847317 37705,6917.858,95.437,540.126,539.32,0.0
53013.0,STARLINK-4177,PAYLOAD,2023-03-08 16:36:42,15.08845488,0.0001587,53.2135,328.7391,75.0709,285.0459,0.0007023,0.00010908,0.0,0 STARLINK-4177,1 53013U 22076AD  23067.69216188  .00010908  00000-0  70230-3 0  9991,2 53013  53.2135 328.7391 0001587  75.0709 285.0459 15.08845488 37841,6917.864,95.437,540.826,538.631,0.0
53013.0,STARLINK-4177,PAYLOAD,2023-03-09 16:27:30,15.08841025,0.0001766,53.218,324.2814,78.4298,281.6892,0.00042986,6.56e-05,0.0,0 STARLINK-4177,1 53013U 22076AD  23068.68576732  .00006560  00000-0  42986-3 0  9991,2 53013  53.2180 324.2814 0001766  78.4298 281.6892 15.08841025 37993,6917.877,95.437,540.964,538.521,0.0
53013.0,STARLINK-4177,PAYLOAD,2023-03-09 21:13:39,15.08851983,0.0001405,53.2172,323.3927,46.5481,313.5628,0.00068957,0.00010707,0.0,0 STARLINK-4177,1 53013U 22076AD  23068.88448470  .00010707  00000-0  68957-3 0  9994,2 53013  53.2172 323.3927 0001405  46.5481 313.5628 15.08851983 37557,6917.844,95.437,540.681,538.737,0.0
53013.0,STARLINK-4177,PAYLOAD,2023-03-10 00:24:25,15.08867883,0.0001426,53.2151,322.7924,64.2387,295.8752,0.0011815,0.0001858,0.0,0 STARLINK-4177,1 53013U 22076AD  23069.01696087  .00018580  00000-0  11815-2 0  9996,2 53013  53.2151 322.7924 0001426  64.2387 295.8752 15.08867883 38040,6917.795,95.436,540.647,538.674,0.0
53013.0,STARLINK-4177,PAYLOAD,2023-03-10 09:56:44,15.08847017,0.0001453,53.217,321.01,82.988,277.1277,0.00012765,1.745e-05,0.0,0 STARLINK-4177,1 53013U 22076AD  23069.41440107  .00001745  00000-0  12765-3 0  9991,2 53013  53.2170 321.0100 0001453  82.9880 277.1277 15.08847017 38103,6917.859,95.437,540.729,538.719,0.0
53013.0,STARLINK-4177,PAYLOAD,2023-03-10 22:39:50,15.08822284,6.75e-05,53.2139,318.6319,69.7399,290.3666,-0.00043772,-7.244e-05,0.0,0 STARLINK-4177,1 53013U 22076AD  23069.94432906 -.00007244  00000-0 -43772-3 0  9991,2 53013  53.2139 318.6319 0000675  69.7399 290.3666 15.08822284 37719,6917.935,95.439,540.267,539.333,0.0
53013.0,STARLINK-4177,PAYLOAD,2023-03-11 22:30:37,15.08846686,0.0001063,53.2135,314.1687,101.4446,258.6665,0.00097779,0.00015311,0.0,0 STARLINK-4177,1 53013U 22076AD  23070.93793384  .00015311  00000-0  97779-3 0  9990,2 53013  53.2135 314.1687 0001063 101.4446 258.6665 15.08846686 38330,6917.86,95.437,540.46,538.99,0.0
53013.0,STARLINK-4177,PAYLOAD,2023-03-12 22:21:24,15.08855118,0.0001111,53.2138,309.7068,101.5373,258.5744,0.00071965,0.00011189,0.0,0 STARLINK-4177,1 53013U 22076AD  23071.93153143  .00011189  00000-0  71965-3 0  9992,2 53013  53.2138 309.7068 0001111 101.5373 258.5744 15.08855118 38483,6917.834,95.437,540.468,538.931,0.0
53013.0,STARLINK-4177,PAYLOAD,2023-03-13 22:12:11,15.08840424,0.0001413,53.2156,305.2515,82.7637,277.3515,0.00071932,0.00011179,0.0,0 STARLINK-4177,1 53013U 22076AD  23072.92513670  .00011179  00000-0  71932-3 0  9990,2 53013  53.2156 305.2515 0001413  82.7637 277.3515 15.08840424 38163,6917.879,95.438,540.722,538.767,0.0
53013.0,STARLINK-4177,PAYLOAD,2023-03-14 22:02:58,15.08859248,0.0001461,53.2151,300.7867,71.4528,288.6623,0.00056124,8.66e-05,0.0,0 STARLINK-4177,1 53013U 22076AD  23073.91872850  .00008660  00000-0  56124-3 0  9995,2 53013  53.2151 300.7867 0001461  71.4528 288.6623 15.08859248 38311,6917.822,95.436,540.697,538.676,0.0
53013.0,STARLINK-4177,PAYLOAD,2023-03-15 01:13:44,15.08865782,0.0001465,53.2148,300.1903,67.9149,292.1999,0.00077603,0.00012093,0.0,0 STARLINK-4177,1 53013U 22076AD  23074.05120575  .00012093  00000-0  77603-3 0  9991,2 53013  53.2148 300.1903 0001465  67.9149 292.1999 15.08865782 38805,6917.802,95.436,540.68,538.653,0.0
53013.0,STARLINK-4177,PAYLOAD,2023-03-15 21:53:44,15.08850273,0.000105,53.2159,296.3267,80.5977,279.5134,0.00017153,2.444e-05,0.0,0 STARLINK-4177,1 53013U 22076AD  23074.91232430  .00002444  00000-0  17153-3 0  9993,2 53013  53.2159 296.3267 0001050  80.5977 279.5134 15.08850273 38467,6917.849,95.437,540.44,538.988,0.0
53013.0,STARLINK-4177,PAYLOAD,2023-03-16 01:04:31,15.08852319,0.0001372,53.2164,295.73,79.657,280.4577,0.00035721,5.404e-05,0.0,0 STARLINK-4177,1 53013U 22076AD  23075.04480336  .00005404  00000-0  35721-3 0  9998,2 53013  53.2164 295.7300 0001372  79.6570 280.4577 15.08852319 38958,6917.843,95.437,540.657,538.759,0.0
53013.0,STARLINK-4177,PAYLOAD,2023-03-16 23:19:56,15.08815919,0.0001122,53.2137,291.5666,94.8725,265.2395,0.00064697,0.00010017,0.0,0 STARLINK-4177,1 53013U 22076AD  23075.97217973  .00010017  00000-0  64697-3 0  9995,2 53013  53.2137 291.5666 0001122  94.8725 265.2395 15.08815919 39091,6917.954,95.439,540.595,539.043,0.0
53013.0,STARLINK-4177,PAYLOAD,2023-03-17 00:55:19,15.08817174,0.0001097,53.2137,291.2694,98.2388,261.8729,0.00072008,0.00011184,0.0,0 STARLINK-4177,1 53013U 22076AD  23076.03842084  .00011184  00000-0  72008-3 0  9991,2 53013  53.2137 291.2694 0001097  98.2388 261.8729 15.08817174 38630,6917.95,95.439,540.574,539.056,0.0
53013.0,STARLINK-4177,PAYLOAD,2023-03-18 00:46:05,15.08863794,9.36e-05,53.2134,286.809,103.259,256.8507,0.0010677,0.00016756,0.0,0 STARLINK-4177,1 53013U 22076AD  23077.03201373  .00016756  00000-0  10677-2 0  9995,2 53013  53.2134 286.8090 0000936 103.2590 256.8507 15.08863794 39256,6917.808,95.436,540.32,539.025,0.0
53013.0,STARLINK-4177,PAYLOAD,2023-03-18 07:07:38,15.08851349,0.0001012,53.212,285.6184,102.11,258.0005,0.00031925,4.798e-05,0.0,0 STARLINK-4177,1 53013U 22076AD  23077.29697363  .00004798  00000-0  31925-3 0  9994,2 53013  53.2120 285.6184 0001012 102.1100 258.0005 15.08851349 39297,6917.846,95.437,540.411,539.011,0.0
53013.0,STARLINK-4177,PAYLOAD,2023-03-18 19:50:43,15.08846406,0.000108,53.2128,283.24,99.2572,260.8542,0.00021078,3.069e-05,0.0,0 STARLINK-4177,1 53013U 22076AD  23077.82689355  .00003069  00000-0  21078-3 0  9993,2 53013  53.2128 283.2400 0001080  99.2572 260.8542 15.08846406 39378,6917.861,95.437,540.473,538.979,0.0
53013.0,STARLINK-4177,PAYLOAD,2023-03-19 13:19:58,15.08837692,0.0001138,53.2143,279.9673,100.4861,259.6259,-5.4893e-05,-1.161e-05,0.0,0 STARLINK-4177,1 53013U 22076AD  23078.55553597 -.00001161  00000-0 -54893-4 0  9997,2 53013  53.2143 279.9673 0001138 100.4861 259.6259 15.08837692 39489,6917.887,95.438,540.54,538.965,0.0
53013.0,STARLINK-4177,PAYLOAD,2023-03-19 19:41:30,15.0884298,0.0001186,53.2135,278.7788,92.5452,267.5676,9.5537e-05,1.233e-05,0.0,0 STARLINK-4177,1 53013U 22076AD  23078.82049445  .00001233  00000-0  95537-4 0  9997,2 53013  53.2135 278.7788 0001186  92.5452 267.5676 15.08842980 39054,6917.871,95.437,540.557,538.916,0.0
53013.0,STARLINK-4177,PAYLOAD,2023-03-20 06:49:12,15.08839977,0.000121,53.2135,276.6972,89.5305,270.5826,7.1959e-05,8.58e-06,0.0,0 STARLINK-4177,1 53013U 22076AD  23079.28417618  .00000858  00000-0  71959-4 0  9993,2 53013  53.2135 276.6972 0001210  89.5305 270.5826 15.08839977 39128,6917.88,95.438,540.583,538.908,0.0
53013.0,STARLINK-4177,PAYLOAD,2023-03-20 19:32:17,15.08844284,0.0001071,53.213,274.3183,77.883,282.2282,0.00018471,2.653e-05,0.0,0 STARLINK-4177,1 53013U 22076AD  23079.81409445  .00002653  00000-0  18471-3 0  9995,2 53013  53.2130 274.3183 0001071  77.8830 282.2282 15.08844284 39673,6917.867,95.437,540.473,538.991,0.0
53013.0,STARLINK-4177,PAYLOAD,2023-03-20 22:43:03,15.08852878,0.0001169,53.2134,273.7246,76.6612,283.451,0.00031225,4.687e-05,0.0,0 STARLINK-4177,1 53013U 22076AD  23079.94657112  .00004687  00000-0  31225-3 0  9996,2 53013  53.2134 273.7246 0001169  76.6612 283.4510 15.08852878 39229,6917.841,95.437,540.515,538.897,0.0
53013.0,STARLINK-4177,PAYLOAD,2023-03-21 19:23:04,15.08841188,0.0001283,53.2136,269.8576,75.4576,284.6558,7.0451e-05,8.34e-06,0.0,0 STARLINK-4177,1 53013U 22076AD  23080.80769472  .00000834  00000-0  70451-4 0  9991,2 53013  53.2136 269.8576 0001283  75.4576 284.6558 15.08841188 39829,6917.877,95.437,540.629,538.854,0.0
53013.0,STARLINK-4177,PAYLOAD,2023-03-22 19:13:51,15.08847512,0.0001109,53.2134,265.398,81.9564,278.1554,0.00042852,6.54e-05,0.0,0 STARLINK-4177,1 53013U 22076AD  23081.80129100  .00006540  00000-0  42852-3 0  9993,2 53013  53.2134 265.3980 0001109  81.9564 278.1554 15.08847512 39509,6917.857,95.437,540.49,538.955,0.0
